"471143 Dziewanna:Dziewanna:2010 EK139" "Sol"
{
	Class	"asteroid"
	Mesh	"roughsphere.cms"
	Texture	"asteroid.*"
	Color	[ 0.938 0.866 0.802 ]
	BlendTexture	true
	Radius	216.5
	OrbitFrame
	{
		EclipticJ2000	{ Center "SSB" }
	}
	EllipticalOrbit
	{
		Epoch	2451545.0  # 2000 Jan 01 12:00
		Period	577.3221816200545
		SemiMajorAxis	69.364003075686
		Eccentricity	0.5313889177176493
		Inclination	29.46011730869261
		AscendingNode	346.1863794149107
		ArgOfPericenter	284.6986015353738
		MeanAnomaly	335.7501191414372
	}
	UniformRotation
	{
		Period	7.07  # Benecchi and Sheppard (2013), 2013AJ....145..124B
	}
	LunarLambert	1
	GeomAlbedo	0.297
	InfoURL	"https://en.wikipedia.org/wiki/471143_Dziewanna"
}

# Porter et al. (2024), "The Shape of (486958) Arrokoth"
#   https://pdssbn.astro.umd.edu/holdings/pds4-nh_derived-v3.0/arrokoth_shapemodel_porter2024/porteretal2024b.pdf
# Albedos and LunarLambert from Hofgartner et al. (2021), Icarus 356, 113723
#   "Photometry of Kuiper belt object (486958) Arrokoth from New Horizons LORRI"
#   https://ui.adsabs.harvard.edu/abs/2021Icar..35613723H/abstract
"486958 Arrokoth:Arrokoth:2014 MU69:Ultima Thule:PT1" "Sol"
{
	Class	"asteroid"
	Mesh	"arrokoth.cmod"
	MeshCenter	[ -2.193 -0.0707 -0.5113 ]
	Texture	"arrokoth.*"
	Color	[ 1.0 0.884 0.766 ]
	Radius	17.273  # maximum semi-axis
	# Density	235  # Keane et al. (2022), 2022JGRE..12707068K
	EllipticalOrbit
	{
		Epoch	2458484.732303241  # 2019 Jan 01 05:34:31 TDB (New Horizons encounter)
		Period	297.3705728517183
		SemiMajorAxis	44.55124634225967
		Eccentricity	0.04096515756134208
		Inclination	2.451831129511527
		AscendingNode	158.9767652155288
		ArgOfPericenter	174.6564493231953
		MeanAnomaly	315.9005911094172
	}

	# https://naif.jpl.nasa.gov/pub/naif/pds/data/nh-j_p_ss-spice-6-v1.0/nhsp_1000/data/pck/nh_arrokoth_002.tpc
	BodyFrame	{ EquatorJ2000 {} }
	UniformRotation
	{
		Period	15.445296
		Inclination	115.5875063
		AscendingNode	49.3685820
		MeridianAngle	71.9541475
	}
	LunarLambert	0.970
	# GeomAlbedo	0.21
	Reflectivity	0.062  # Bond albedo at 610 nm
	InfoURL	"https://en.wikipedia.org/wiki/486958_Arrokoth"
}

# Sheppard et al. (2018), AJ 156, 270
#   "The Albedos, Sizes, Colors, and Satellites of Dwarf Planets Compared with
#   Newly Measured Dwarf Planet 2013 FY27"
#   https://ui.adsabs.harvard.edu/abs/2018AJ....156..270S/abstract
"532037 Chiminigagua:Chiminigagua:2013 FY27" "Sol"
{
	Class	"asteroid"
	Texture	"asteroid.*"
	Color	[ 0.711 0.67 0.643 ]
	BlendTexture	true
	Radius	371  # thermal measurement
	OrbitFrame
	{
		EclipticJ2000	{ Center "SSB" }
	}
	EllipticalOrbit
	{
		Epoch	2451545.0  # 2000 Jan 01 12:00
		Period	450.4304815695852
		SemiMajorAxis	58.78598972315042
		Eccentricity	0.3948947540909976
		Inclination	33.12056114676863
		AscendingNode	187.0531983983662
		ArgOfPericenter	139.2075189231244
		MeanAnomaly	198.0573808609261
	}
	UniformRotation
	{
		Period	10  # no measurement
	}
	LunarLambert	1
	GeomAlbedo	0.17
	InfoURL	"https://en.wikipedia.org/wiki/532037_Chiminigagua"
}

"Chiminigagua moon" "Sol/Chiminigagua"  # no provisional designation
{
	Class	"minormoon"
	Mesh	"asteroid.cms"
	Texture	"asteroid.*"
	Color	[ 0.711 0.67 0.643 ]  # assume same as primary
	BlendTexture	true
	Radius	93  # assume same albedo as primary
	EllipticalOrbit  # estimated
	{
		Period	19
		SemiMajorAxis	9800  # estimated minimum separation
	}
	LunarLambert	1
	GeomAlbedo	0.17  # assume same as primary
	InfoURL	"https://en.wikipedia.org/wiki/532037_Chiminigagua#Satellite"
}

# Rommel (2022), "Determination of physical properties and topography of TNOs from
#   stellar occultations and rotational light curves: the case of 2002 MS4 object"
#   http://sistede.on.br:8080/handle/tede/149
"(612911) 2004 XR190:2004 XR190" "Sol"
{
	Class	"asteroid"
	Texture	"asteroid.*"
	Color	[ 0.505 0.499 0.461 ]
	BlendTexture	true
	Radius	358  # ellipse semi-major axis
	Oblateness	0.32
	OrbitFrame
	{
		EclipticJ2000	{ Center "SSB" }
	}
	EllipticalOrbit
	{
		Epoch	2451545.0  # 2000 Jan 01 12:00
		Period	435.5299168036099
		SemiMajorAxis	57.48227935585414
		Eccentricity	0.1075113568788882
		Inclination	46.64088613246979
		AscendingNode	252.3672378505755
		ArgOfPericenter	283.5601276781185
		MeanAnomaly	263.1244000059405
	}
	BodyFrame	{ EquatorJ2000 {} }
	UniformRotation
	{
		Period	19.47
		Inclination	38  # assume equator-on orientation on 2021-01-22
		AscendingNode	279  # position angle = 35° ± 32°
	}
	LunarLambert	1
	GeomAlbedo	0.089  # from R-band albedo and MBOSS color indices
	InfoURL	"https://en.wikipedia.org/wiki/(612911)_2004_XR190"
}

# Gerdes et al. (2017), ApJL 839, L15
#   "Discovery and Physical Characterization of a Large Scattered Disk Object at 92 au"
#   https://ui.adsabs.harvard.edu/abs/2017ApJ...839L..15G/abstract
"2014 UZ224:DeeDee" "Sol"
{
	Class	"asteroid"
	Texture	"asteroid.*"
	Color	[ 0.638 0.592 0.556 ]
	BlendTexture	true
	Radius	317.5
	OrbitFrame
	{
		EclipticJ2000	{ Center "SSB" }
	}
	EllipticalOrbit
	{
		Epoch	2451545.0  # 2000 Jan 01 12:00
		Period	1129.821086962011
		SemiMajorAxis	108.5246607383175
		Eccentricity	0.6467505763744339
		Inclination	26.78460245749269
		AscendingNode	131.0010599912059
		ArgOfPericenter	29.42537432496529
		MeanAnomaly	314.5872667303412
	}
	UniformRotation
	{
		Period	8  # no measurement
	}
	LunarLambert	1
	GeomAlbedo	0.131
	InfoURL	"https://en.wikipedia.org/wiki/2014_UZ224"
}
